IRIDIUM 150             
1 43257U 18030J   23231.43452963  .00000334  00000+0  11218-3 0  9995
2 43257  86.4016   2.0796 0002528  92.5685 267.5800 14.34220390282158
IRIDIUM 143             
1 43258U 18030K   23230.64804770  .00000385  00000+0  13050-3 0  9997
2 43258  86.4017   2.4591 0002206  87.7672 272.3776 14.34217134281980
IRIDIUM 161             
1 43478U 18047C   23231.55550238  .00000494  00000+0  14079-3 0  9990
2 43478  86.4554 160.0572 0002392  85.7292 274.4183 14.43288983276194
IRIDIUM 152             
1 43479U 18047D   23230.55099131  .00000341  00000+0  11479-3 0  9992
2 43479  86.4028 160.3366 0002297  78.5683 281.5771 14.34216185274345
IRIDIUM 147             
1 43480U 18047E   23232.16201616  .00000181  00000+0  57735-4 0  9994
2 43480  86.4027 159.6520 0002190  89.1292 271.0155 14.34217738274564
IRIDIUM 110             
1 43481U 18047F   23231.33113673  .00000351  00000+0  11837-3 0  9999
2 43481  86.4029 160.0631 0002470  90.5841 269.5638 14.34216934274434
IRIDIUM 162             
1 43482U 18047G   23231.54921305  .00000497  00000+0  14161-3 0  9996
2 43482  86.4552 159.9641 0002328  85.1734 274.9733 14.43286982276187
IRIDIUM 160             
1 43569U 18061A   23231.20720905  .00000353  00000+0  11893-3 0  9994
2 43569  86.3988 128.5223 0001898  80.2730 279.8680 14.34219249265316
